NORAD_CAT_ID,OBJECT_NAME,OBJECT_TYPE,EPOCH,MEAN_MOTION,ECCENTRICITY,INCLINATION,RA_OF_ASC_NODE,ARG_OF_PERICENTER,MEAN_ANOMALY,BSTAR,MEAN_MOTION_DOT,MEAN_MOTION_DDOT,TLE_LINE0,TLE_LINE1,TLE_LINE2,SEMIMAJOR_AXIS,PERIOD,APOGEE,PERIGEE,DECAYED
53396.0,STARLINK-4524,PAYLOAD,2023-10-20 10:20:35,15.08835436,0.0001535,53.217,75.3495,81.9984,278.1182,2.9764e-05,1.86e-06,0.0,0 STARLINK-4524,1 53396U 22097J   23293.43096364  .00000186  00000-0  29764-4 0  9997,2 53396  53.2170  75.3495 0001535  81.9984 278.1182 15.08835436 66983,6917.894,95.438,540.821,538.697,0.0
53396.0,STARLINK-4524,PAYLOAD,2023-10-21 11:46:45,15.08841268,0.0001996,53.2173,70.5916,89.4728,270.6493,-4.1043e-05,-9.41e-06,0.0,0 STARLINK-4524,1 53396U 22097J   23294.49080528 -.00000941  00000-0 -41043-4 0  9994,2 53396  53.2173  70.5916 0001996  89.4728 270.6493 15.08841268 67142,6917.877,95.437,541.122,538.361,0.0
53396.0,STARLINK-4524,PAYLOAD,2023-10-21 18:08:16,15.08873588,0.0001833,53.2169,69.4022,79.7782,280.3416,-0.00022591,-3.885e-05,0.0,0 STARLINK-4524,1 53396U 22097J   23294.75574644 -.00003885  00000-0 -22591-3 0  9996,2 53396  53.2169  69.4022 0001833  79.7782 280.3416 15.08873588 66696,6917.778,95.435,540.911,538.375,0.0
53396.0,STARLINK-4524,PAYLOAD,2023-10-22 02:05:13,15.0883529,0.0002393,53.2175,67.9154,78.2591,281.8669,0.0001189,1.604e-05,0.0,0 STARLINK-4524,1 53396U 22097J   23295.08696675  .00001604  00000-0  11890-3 0  9997,2 53396  53.2175  67.9154 0002393  78.2591 281.8669 15.08835290 66746,6917.895,95.438,541.415,538.104,0.0
53396.0,STARLINK-4524,PAYLOAD,2023-10-22 13:12:56,15.08821417,0.0001523,53.2183,65.835,78.0413,282.075,1.3105e-05,-7.9e-07,0.0,0 STARLINK-4524,1 53396U 22097J   23295.55065917 -.00000079  00000-0  13105-4 0  9996,2 53396  53.2183  65.8350 0001523  78.0413 282.0750 15.08821417 67308,6917.937,95.439,540.856,538.749,0.0
53396.0,STARLINK-4524,PAYLOAD,2023-10-22 16:23:42,15.08827535,0.0001304,53.2171,65.2412,86.9753,273.1388,-4.028e-05,-9.29e-06,0.0,0 STARLINK-4524,1 53396U 22097J   23295.68313090 -.00000929  00000-0 -40280-4 0  9997,2 53396  53.2171  65.2412 0001304  86.9753 273.1388 15.08827535 66832,6917.918,95.438,540.686,538.881,0.0
53396.0,STARLINK-4524,PAYLOAD,2023-10-23 01:56:01,15.08840087,0.0001385,53.2169,63.4578,79.9109,280.204,-2.7634e-05,-7.28e-06,0.0,0 STARLINK-4524,1 53396U 22097J   23296.08056882 -.00000728  00000-0 -27634-4 0  9990,2 53396  53.2169  63.4578 0001385  79.9109 280.2040 15.08840087 66895,6917.88,95.438,540.703,538.787,0.0
53396.0,STARLINK-4524,PAYLOAD,2023-10-23 14:39:06,15.0884543,0.0001357,53.2171,61.0787,78.4339,281.6805,9.6379e-05,1.247e-05,0.0,0 STARLINK-4524,1 53396U 22097J   23296.61048624  .00001247  00000-0  96379-4 0  9991,2 53396  53.2171  61.0787 0001357  78.4339 281.6805 15.08845430 67467,6917.864,95.437,540.668,538.79,0.0
53396.0,STARLINK-4524,PAYLOAD,2023-10-24 01:46:47,15.08857579,0.0001229,53.2171,58.9974,76.6259,283.487,-0.00017543,-3.08e-05,0.0,0 STARLINK-4524,1 53396U 22097J   23297.07415889 -.00003080  00000-0 -17543-3 0  9997,2 53396  53.2171  58.9974 0001229  76.6259 283.4870 15.08857579 67042,6917.827,95.436,540.542,538.841,0.0
53396.0,STARLINK-4524,PAYLOAD,2023-10-24 14:29:53,15.08837461,0.0001433,53.2172,56.6187,75.8746,284.2405,0.00024555,3.622e-05,0.0,0 STARLINK-4524,1 53396U 22097J   23297.60409373  .00003622  00000-0  24555-3 0  9998,2 53396  53.2172  56.6187 0001433  75.8746 284.2405 15.08837461 67617,6917.888,95.438,540.744,538.762,0.0
53396.0,STARLINK-4524,PAYLOAD,2023-10-25 14:20:40,15.08843908,0.0001528,53.2187,52.1587,84.4184,275.6982,9.1336e-05,1.166e-05,0.0,0 STARLINK-4524,1 53396U 22097J   23298.59768920  .00001166  00000-0  91336-4 0  9996,2 53396  53.2187  52.1587 0001528  84.4184 275.6982 15.08843908 67274,6917.868,95.437,540.79,538.676,0.0
53396.0,STARLINK-4524,PAYLOAD,2023-10-26 12:36:04,15.08838657,0.0001479,53.2182,47.9961,83.0145,277.1015,5.4378e-05,5.78e-06,0.0,0 STARLINK-4524,1 53396U 22097J   23299.52505253  .00000578  00000-0  54378-4 0  9999,2 53396  53.2182  47.9961 0001479  83.0145 277.1015 15.08838657 67419,6917.884,95.438,540.773,538.726,0.0
53396.0,STARLINK-4524,PAYLOAD,2023-10-26 14:11:27,15.08839926,0.0001487,53.2182,47.6983,87.0792,273.0371,6.6148e-05,7.65e-06,0.0,0 STARLINK-4524,1 53396U 22097J   23299.59129115  .00000765  00000-0  66148-4 0  9991,2 53396  53.2182  47.6983 0001487  87.0792 273.0371 15.08839926 67916,6917.881,95.438,540.774,538.717,0.0
53396.0,STARLINK-4524,PAYLOAD,2023-10-27 12:26:52,15.08804349,0.0001292,53.2192,43.5362,102.2787,257.835,0.00093917,0.00014676,0.0,0 STARLINK-4524,1 53396U 22097J   23300.51866037  .00014676  00000-0  93917-3 0  9996,2 53396  53.2192  43.5362 0001292 102.2787 257.8350 15.08804349 67560,6917.989,95.44,540.748,538.961,0.0
53396.0,STARLINK-4524,PAYLOAD,2023-10-27 17:12:59,15.08859748,0.0001798,53.2189,42.6422,118.824,241.2933,0.00027249,4.054e-05,0.0,0 STARLINK-4524,1 53396U 22097J   23300.71735415  .00004054  00000-0  27249-3 0  9997,2 53396  53.2189  42.6422 0001798 118.8240 241.2933 15.08859748 67591,6917.82,95.436,540.929,538.441,0.0
53396.0,STARLINK-4524,PAYLOAD,2023-10-28 13:53:01,15.0882965,0.000136,53.2181,38.7772,80.1572,279.9574,-0.00010919,-2.025e-05,0.0,0 STARLINK-4524,1 53396U 22097J   23301.57849437 -.00002025  00000-0 -10919-3 0  9996,2 53396  53.2181  38.7772 0001360  80.1572 279.9574 15.08829650 67724,6917.912,95.438,540.718,538.836,0.0
53396.0,STARLINK-4524,PAYLOAD,2023-10-28 23:25:20,15.08839858,0.0001448,53.2189,36.9931,81.1684,278.9472,4.2392e-05,3.87e-06,0.0,0 STARLINK-4524,1 53396U 22097J   23301.97593096  .00000387  00000-0  42392-4 0  9995,2 53396  53.2189  36.9931 0001448  81.1684 278.9472 15.08839858 67784,6917.881,95.438,540.748,538.744,0.0
53396.0,STARLINK-4524,PAYLOAD,2023-10-29 12:08:24,15.08858357,0.0001692,53.2188,34.6151,86.1837,273.9349,0.00022255,3.257e-05,0.0,0 STARLINK-4524,1 53396U 22097J   23302.50583958  .00003257  00000-0  22255-3 0  9995,2 53396  53.2188  34.6151 0001692  86.1837 273.9349 15.08858357 67860,6917.824,95.436,540.86,538.519,0.0
53396.0,STARLINK-4524,PAYLOAD,2023-10-30 11:59:12,15.08833726,0.0001385,53.2182,30.1522,85.6791,274.4359,-3.1887e-05,-7.95e-06,0.0,0 STARLINK-4524,1 53396U 22097J   23303.49945340 -.00000795  00000-0 -31887-4 0  9999,2 53396  53.2182  30.1522 0001385  85.6791 274.4359 15.08833726 68017,6917.9,95.438,540.723,538.806,0.0
53396.0,STARLINK-4524,PAYLOAD,2023-10-31 10:14:37,15.08833643,0.0001577,53.2177,25.9914,75.4784,284.6383,-4.9845e-05,-1.081e-05,0.0,0 STARLINK-4524,1 53396U 22097J   23304.42682320 -.00001081  00000-0 -49845-4 0  9991,2 53396  53.2177  25.9914 0001577  75.4784 284.6383 15.08833643 68647,6917.9,95.438,540.856,538.674,0.0
53396.0,STARLINK-4524,PAYLOAD,2023-10-31 15:00:46,15.08842132,0.0001505,53.2179,25.0976,87.5801,272.5363,3.537e-05,2.75e-06,0.0,0 STARLINK-4524,1 53396U 22097J   23304.62553783  .00000275  00000-0  35370-4 0  9993,2 53396  53.2179  25.0976 0001505  87.5801 272.5363 15.08842132 68189,6917.874,95.437,540.78,538.698,0.0
53396.0,STARLINK-4524,PAYLOAD,2023-11-01 05:19:15,15.08838983,0.0001329,53.2183,22.42,89.0147,271.0997,0.00051287,7.884e-05,0.0,0 STARLINK-4524,1 53396U 22097J   23305.22170476  .00007884  00000-0  51287-3 0  9991,2 53396  53.2183  22.4200 0001329  89.0147 271.0997 15.08838983 68275,6917.883,95.438,540.668,538.829,0.0
53396.0,STARLINK-4524,PAYLOAD,2023-11-01 11:40:47,15.0885642,0.000163,53.2177,21.2336,76.6527,283.4647,0.00065891,0.00010219,0.0,0 STARLINK-4524,1 53396U 22097J   23305.48666048  .00010219  00000-0  65891-3 0  9996,2 53396  53.2177  21.2336 0001630  76.6527 283.4647 15.08856420 68314,6917.83,95.437,540.823,538.568,0.0
53396.0,STARLINK-4524,PAYLOAD,2023-11-02 05:10:01,15.0885159,0.0002059,53.221,17.9617,85.7264,274.3963,0.00019446,2.809e-05,0.0,0 STARLINK-4524,1 53396U 22097J   23306.21529793  .00002809  00000-0  19446-3 0  9994,2 53396  53.2210  17.9617 0002059  85.7264 274.3963 15.08851590 68426,6917.845,95.437,541.134,538.286,0.0
53396.0,STARLINK-4524,PAYLOAD,2023-11-02 11:31:33,15.08853967,0.0001627,53.2175,16.7728,83.0099,277.1078,0.00027,4.013e-05,0.0,0 STARLINK-4524,1 53396U 22097J   23306.48025444  .00004013  00000-0  27000-3 0  9991,2 53396  53.2175  16.7728 0001627  83.0099 277.1078 15.08853967 68959,6917.838,95.437,540.828,538.577,0.0
53396.0,STARLINK-4524,PAYLOAD,2023-11-03 05:00:48,15.08844535,0.0001678,53.2178,13.5018,77.3051,282.8129,0.00055031,8.482e-05,0.0,0 STARLINK-4524,1 53396U 22097J   23307.20889870  .00008482  00000-0  55031-3 0  9992,2 53396  53.2178  13.5018 0001678  77.3051 282.8129 15.08844535 68578,6917.867,95.437,540.892,538.571,0.0
53396.0,STARLINK-4524,PAYLOAD,2023-11-03 11:22:21,15.08844699,0.0001637,53.2182,12.3114,82.9571,277.1608,9.1563e-06,-1.42e-06,0.0,0 STARLINK-4524,1 53396U 22097J   23307.47385604 -.00000142  00000-0  91563-5 0  9995,2 53396  53.2182  12.3114 0001637  82.9571 277.1608 15.08844699 69101,6917.866,95.437,540.863,538.599,0.0
53396.0,STARLINK-4524,PAYLOAD,2023-11-03 20:54:40,15.08833037,0.0001983,53.2197,10.5273,86.6123,273.5096,-9.6075e-05,-1.817e-05,0.0,0 STARLINK-4524,1 53396U 22097J   23307.87130184 -.00001817  00000-0 -96075-4 0  9993,2 53396  53.2197  10.5273 0001983  86.6123 273.5096 15.08833037 68677,6917.902,95.438,541.138,538.395,0.0
53396.0,STARLINK-4524,PAYLOAD,2023-11-04 11:13:08,15.08845816,0.0001555,53.2177,7.8537,90.1741,269.943,0.00034778,5.252e-05,0.0,0 STARLINK-4524,1 53396U 22097J   23308.46745954  .00005252  00000-0  34778-3 0  9992,2 53396  53.2177   7.8537 0001555  90.1741 269.9430 15.08845816 68767,6917.863,95.437,540.803,538.652,0.0
53396.0,STARLINK-4524,PAYLOAD,2023-11-04 20:45:27,15.08843941,0.0001493,53.2186,6.0704,90.2242,269.8922,0.00052146,8.022e-05,0.0,0 STARLINK-4524,1 53396U 22097J   23308.86490265  .00008022  00000-0  52146-3 0  9995,2 53396  53.2186   6.0704 0001493  90.2242 269.8922 15.08843941 69316,6917.868,95.437,540.766,538.701,0.0
